STARLINK-34398          
1 64445U 25130H   26068.32472272  .00022587  00000+0  77254-3 0  9996
2 64445  53.1598  90.4840 0001244  88.7999 271.3144 15.30194482 40645
2025-313BC              
1 67298U 25313BC  26068.18968176  .00075331  00000+0  26410-2 0  9997
2 67298  97.3985 144.8110 0008478 328.9209  31.1528 15.29126358  7890
